16969,NOAA 10,1986,100.77,-1.0,-,98.67,Inactive,0,LEO,USA,USA,Unknown,Unknown,Unknown,1 16969U 86073A   25144.45993323  .00000139  00000+0  72465-4 0  9999,2 16969  98.6741 133.9247 0013103  56.5045  58.2955 14.29001197 14148,14.29001197,0.0013103,LEO
9057,NOAA 5,1976,116.33,-1.0,-,102.26,Inactive,0,LEO,USA,USA,Unknown,Unknown,Unknown,1 09057U 76077A   25144.51515767 -.00000042  00000+0  31219-4 0  9997,2 09057 102.2571 123.9967 0009654 333.7181 136.6942 12.37817911206388,12.37817911,0.0009654,LEO
19531,NOAA 11,1988,101.71,-1.0,-,98.57,Inactive,0,LEO,USA,USA,Unknown,Unknown,Unknown,1 19531U 88089A   25144.45415081  .00000046  00000+0  44753-4 0  9992,2 19531  98.5703  98.9479 0010692 339.9956  20.0798 14.15743352892472,14.15743352,0.0010692,LEO
11416,NOAA 6,1979,100.34,-1.0,-,98.6,Inactive,0,LEO,USA,USA,Unknown,Unknown,Unknown,1 11416U 79057A   25144.52476952  .00000317  00000+0  12653-3 0  9997,2 11416  98.5999 171.0208 0009318 337.0960  22.9808 14.35166266395200,14.35166266,0.0009318,LEO
12553,NOAA 7,1981,101.57,-1.0,-,98.84,Inactive,0,LEO,USA,USA,Unknown,Unknown,Unknown,1 12553U 81059A   25144.16443142  .00000031  00000+0  36989-4 0  9992,2 12553  98.8442 208.9647 0010474 303.8615  56.1562 14.17703260269622,14.1770326,0.0010474,LEO
4793,NOAA 1,1970,114.83,-1.0,-,101.39,Inactive,0,LEO,USA,USA,Unknown,Unknown,Unknown,1 04793U 70106A   25144.64243521 -.00000035  00000+0  46475-4 0  9998,2 04793 101.3904 190.3428 0031669  29.6831 143.2538 12.54042948491980,12.54042948,0.0031669,LEO
21263,NOAA 12,1991,100.94,-1.0,-,98.59,Inactive,0,LEO,USA,USA,Unknown,Unknown,Unknown,1 21263U 91032A   25144.59172155  .00000115  00000+0  65326-4 0  9992,2 21263  98.5870 134.6286 0014848  84.2727 276.0146 14.26605874769559,14.26605874,0.0014848,LEO
13923,NOAA 8,1983,100.73,-1.0,-,98.74,Inactive,0,LEO,USA,USA,Unknown,Unknown,Unknown,1 13923U 83022A   25144.44668870  .00000126  00000+0  66777-4 0  9997,2 13923  98.7369 151.3072 0014005 319.3232  40.6903 14.29626778195520,14.29626778,0.0014005,LEO
6235,NOAA 2 (ITOS-D),1972,114.91,-1.0,-,102.02,Inactive,0,LEO,USA,USA,Unknown,Unknown,Unknown,1 06235U 72082A   25144.54114762 -.00000031  00000+0  99049-4 0  9990,2 06235 102.0212 153.5760 0004041 184.6607 351.2582 12.53200427406264,12.53200427,0.0004041,LEO
6920,NOAA 3,1973,116.09,-1.0,-,102.29,Inactive,0,LEO,USA,USA,Unknown,Unknown,Unknown,1 06920U 73086A   25144.46503378 -.00000030  00000+0  12182-3 0  9993,2 06920 102.2887 149.6250 0006869 117.1519  14.4879 12.40382328333700,12.40382328,0.0006869,LEO
7529,NOAA 4,1974,114.91,-1.0,-,102.0,Inactive,0,LEO,USA,USA,Unknown,Unknown,Unknown,1 07529U 74089A   25144.51346588 -.00000034  00000+0  81499-4 0  9999,2 07529 102.0033 148.1716 0008730 215.4934 296.3789 12.53194663310837,12.53194663,0.000873,LEO
