[
  {
    "OBJECT_NAME": "NOAA 1",
    "OBJECT_ID": "1970-106A",
    "EPOCH": "2025-05-24T15:25:06.402144",
    "MEAN_MOTION": 12.54042948,
    "ECCENTRICITY": 0.0031669,
    "INCLINATION": 101.3904,
    "RA_OF_ASC_NODE": 190.3428,
    "ARG_OF_PERICENTER": 29.6831,
    "MEAN_ANOMALY": 143.2538,
    "EPHEMERIS_TYPE": 0,
    "CLASSIFICATION_TYPE": "U",
    "NORAD_CAT_ID": 4793,
    "ELEMENT_SET_NO": 999,
    "REV_AT_EPOCH": 49198,
    "BSTAR": 4.6475e-05,
    "MEAN_MOTION_DOT": -3.5e-07,
    "MEAN_MOTION_DDOT": 0
  },
  {
    "OBJECT_NAME": "NOAA 2 (ITOS-D)",
    "OBJECT_ID": "1972-082A",
    "EPOCH": "2025-05-24T12:59:15.154368",
    "MEAN_MOTION": 12.53200427,
    "ECCENTRICITY": 0.0004041,
    "INCLINATION": 102.0212,
    "RA_OF_ASC_NODE": 153.576,
    "ARG_OF_PERICENTER": 184.6607,
    "MEAN_ANOMALY": 351.2582,
    "EPHEMERIS_TYPE": 0,
    "CLASSIFICATION_TYPE": "U",
    "NORAD_CAT_ID": 6235,
    "ELEMENT_SET_NO": 999,
    "REV_AT_EPOCH": 40626,
    "BSTAR": 9.9049e-05,
    "MEAN_MOTION_DOT": -3.1e-07,
    "MEAN_MOTION_DDOT": 0
  },
  {
    "OBJECT_NAME": "NOAA 3",
    "OBJECT_ID": "1973-086A",
    "EPOCH": "2025-05-24T11:09:38.918592",
    "MEAN_MOTION": 12.40382328,
    "ECCENTRICITY": 0.0006869,
    "INCLINATION": 102.2887,
    "RA_OF_ASC_NODE": 149.625,
    "ARG_OF_PERICENTER": 117.1519,
    "MEAN_ANOMALY": 14.4879,
    "EPHEMERIS_TYPE": 0,
    "CLASSIFICATION_TYPE": "U",
    "NORAD_CAT_ID": 6920,
    "ELEMENT_SET_NO": 999,
    "REV_AT_EPOCH": 33370,
    "BSTAR": 0.00012182,
    "MEAN_MOTION_DOT": -3e-07,
    "MEAN_MOTION_DDOT": 0
  },
  {
    "OBJECT_NAME": "NOAA 4",
    "OBJECT_ID": "1974-089A",
    "EPOCH": "2025-05-24T12:19:23.452032",
    "MEAN_MOTION": 12.53194663,
    "ECCENTRICITY": 0.000873,
    "INCLINATION": 102.0033,
    "RA_OF_ASC_NODE": 148.1716,
    "ARG_OF_PERICENTER": 215.4934,
    "MEAN_ANOMALY": 296.3789,
    "EPHEMERIS_TYPE": 0,
    "CLASSIFICATION_TYPE": "U",
    "NORAD_CAT_ID": 7529,
    "ELEMENT_SET_NO": 999,
    "REV_AT_EPOCH": 31083,
    "BSTAR": 8.1499e-05,
    "MEAN_MOTION_DOT": -3.4e-07,
    "MEAN_MOTION_DDOT": 0
  },
  {
    "OBJECT_NAME": "NOAA 5",
    "OBJECT_ID": "1976-077A",
    "EPOCH": "2025-05-24T12:21:49.622688",
    "MEAN_MOTION": 12.37817911,
    "ECCENTRICITY": 0.0009654,
    "INCLINATION": 102.2571,
    "RA_OF_ASC_NODE": 123.9967,
    "ARG_OF_PERICENTER": 333.7181,
    "MEAN_ANOMALY": 136.6942,
    "EPHEMERIS_TYPE": 0,
    "CLASSIFICATION_TYPE": "U",
    "NORAD_CAT_ID": 9057,
    "ELEMENT_SET_NO": 999,
    "REV_AT_EPOCH": 20638,
    "BSTAR": 3.1219e-05,
    "MEAN_MOTION_DOT": -4.2e-07,
    "MEAN_MOTION_DDOT": 0
  },
  {
    "OBJECT_NAME": "NOAA 6",
    "OBJECT_ID": "1979-057A",
    "EPOCH": "2025-05-24T12:35:40.086528",
    "MEAN_MOTION": 14.35166266,
    "ECCENTRICITY": 0.0009318,
    "INCLINATION": 98.5999,
    "RA_OF_ASC_NODE": 171.0208,
    "ARG_OF_PERICENTER": 337.096,
    "MEAN_ANOMALY": 22.9808,
    "EPHEMERIS_TYPE": 0,
    "CLASSIFICATION_TYPE": "U",
    "NORAD_CAT_ID": 11416,
    "ELEMENT_SET_NO": 999,
    "REV_AT_EPOCH": 39520,
    "BSTAR": 0.00012653,
    "MEAN_MOTION_DOT": 3.17e-06,
    "MEAN_MOTION_DDOT": 0
  },
  {
    "OBJECT_NAME": "NOAA 7",
    "OBJECT_ID": "1981-059A",
    "EPOCH": "2025-05-24T03:56:46.874688",
    "MEAN_MOTION": 14.1770326,
    "ECCENTRICITY": 0.0010474,
    "INCLINATION": 98.8442,
    "RA_OF_ASC_NODE": 208.9647,
    "ARG_OF_PERICENTER": 303.8615,
    "MEAN_ANOMALY": 56.1562,
    "EPHEMERIS_TYPE": 0,
    "CLASSIFICATION_TYPE": "U",
    "NORAD_CAT_ID": 12553,
    "ELEMENT_SET_NO": 999,
    "REV_AT_EPOCH": 26962,
    "BSTAR": 3.6989e-05,
    "MEAN_MOTION_DOT": 3.1e-07,
    "MEAN_MOTION_DDOT": 0
  },
  {
    "OBJECT_NAME": "NOAA 8",
    "OBJECT_ID": "1983-022A",
    "EPOCH": "2025-05-24T10:43:13.903680",
    "MEAN_MOTION": 14.29626778,
    "ECCENTRICITY": 0.0014005,
    "INCLINATION": 98.7369,
    "RA_OF_ASC_NODE": 151.3072,
    "ARG_OF_PERICENTER": 319.3232,
    "MEAN_ANOMALY": 40.6903,
    "EPHEMERIS_TYPE": 0,
    "CLASSIFICATION_TYPE": "U",
    "NORAD_CAT_ID": 13923,
    "ELEMENT_SET_NO": 999,
    "REV_AT_EPOCH": 19552,
    "BSTAR": 6.6777e-05,
    "MEAN_MOTION_DOT": 1.26e-06,
    "MEAN_MOTION_DDOT": 0
  },
  {
    "OBJECT_NAME": "NOAA 10",
    "OBJECT_ID": "1986-073A",
    "EPOCH": "2025-05-24T11:02:18.231072",
    "MEAN_MOTION": 14.29001197,
    "ECCENTRICITY": 0.0013103,
    "INCLINATION": 98.6741,
    "RA_OF_ASC_NODE": 133.9247,
    "ARG_OF_PERICENTER": 56.5045,
    "MEAN_ANOMALY": 58.2955,
    "EPHEMERIS_TYPE": 0,
    "CLASSIFICATION_TYPE": "U",
    "NORAD_CAT_ID": 16969,
    "ELEMENT_SET_NO": 999,
    "REV_AT_EPOCH": 1414,
    "BSTAR": 7.2465e-05,
    "MEAN_MOTION_DOT": 1.39e-06,
    "MEAN_MOTION_DDOT": 0
  },
  {
    "OBJECT_NAME": "NOAA 11",
    "OBJECT_ID": "1988-089A",
    "EPOCH": "2025-05-24T10:53:58.629984",
    "MEAN_MOTION": 14.15743352,
    "ECCENTRICITY": 0.0010692,
    "INCLINATION": 98.5703,
    "RA_OF_ASC_NODE": 98.9479,
    "ARG_OF_PERICENTER": 339.9956,
    "MEAN_ANOMALY": 20.0798,
    "EPHEMERIS_TYPE": 0,
    "CLASSIFICATION_TYPE": "U",
    "NORAD_CAT_ID": 19531,
    "ELEMENT_SET_NO": 999,
    "REV_AT_EPOCH": 89247,
    "BSTAR": 4.4753e-05,
    "MEAN_MOTION_DOT": 4.6e-07,
    "MEAN_MOTION_DDOT": 0
  },
  {
    "OBJECT_NAME": "NOAA 12",
    "OBJECT_ID": "1991-032A",
    "EPOCH": "2025-05-24T14:12:04.741920",
    "MEAN_MOTION": 14.26605874,
    "ECCENTRICITY": 0.0014848,
    "INCLINATION": 98.587,
    "RA_OF_ASC_NODE": 134.6286,
    "ARG_OF_PERICENTER": 84.2727,
    "MEAN_ANOMALY": 276.0146,
    "EPHEMERIS_TYPE": 0,
    "CLASSIFICATION_TYPE": "U",
    "NORAD_CAT_ID": 21263,
    "ELEMENT_SET_NO": 999,
    "REV_AT_EPOCH": 76955,
    "BSTAR": 6.5326e-05,
    "MEAN_MOTION_DOT": 1.15e-06,
    "MEAN_MOTION_DDOT": 0
  }
]